{
  "norad_id": 66474,
  "name": "STARLINK-35620",
  "history": [
    {
      "epoch": "2026-03-28T18:03:49.182048",
      "apogee_km": 485.96039364667104,
      "perigee_km": 479.7934398977186,
      "latitude_deg": -37.23912876196068,
      "longitude_deg": 179.65464672003873,
      "semi_major_axis_km": 6861.0139167721945,
      "eccentricity": 0.00044942,
      "inclination_deg": 43.0053,
      "raan_deg": 188.3569,
      "arg_perigee_deg": 291.4998,
      "mean_anomaly_deg": 68.5374,
      "mean_motion_rev_day": 15.27637503
    }
  ]
}