{"fetched_at":"2026-03-30T09:12:31Z","count":15922,"tles":[{"name":"STARLINK-35620","line1":"1 66474U 25262U   26087.75265257  .00029451  00000+0  10734-2 0  9993","line2":"2 66474  43.0053 188.3569 0004494 291.4998  68.5374 15.27637503 21822","category":"Starlink"}]}